<?xml version="1.0" encoding="UTF-8"?>
<ndm xmlns:xsi="http://www.w3.org/2001/XMLSchema-instance" xsi:noNamespaceSchemaLocation="https://sanaregistry.org/r/ndmxml_unqualified/ndmxml-2.0.0-master-2.0.xsd">
<omm id="CCSDS_OMM_VERS" version="2.0">
<header><CREATION_DATE/><ORIGINATOR/></header><body><segment><metadata><OBJECT_NAME>IRIDIUM 26</OBJECT_NAME><OBJECT_ID>1997-043A</OBJECT_ID><CENTER_NAME>EARTH</CENTER_NAME><REF_FRAME>TEME</REF_FRAME><TIME_SYSTEM>UTC</TIME_SYSTEM><MEAN_ELEMENT_THEORY>SGP4</MEAN_ELEMENT_THEORY></metadata><data><meanElements><EPOCH>2025-02-23T19:54:05.672448</EPOCH><MEAN_MOTION>14.36990788</MEAN_MOTION><ECCENTRICITY>.0002317</ECCENTRICITY><INCLINATION>86.4026</INCLINATION><RA_OF_ASC_NODE>158.2168</RA_OF_ASC_NODE><ARG_OF_PERICENTER>96.9976</ARG_OF_PERICENTER><MEAN_ANOMALY>263.1485</MEAN_ANOMALY></meanElements><tleParameters><EPHEMERIS_TYPE>0</EPHEMERIS_TYPE><CLASSIFICATION_TYPE>U</CLASSIFICATION_TYPE><NORAD_CAT_ID>24903</NORAD_CAT_ID><ELEMENT_SET_NO>999</ELEMENT_SET_NO><REV_AT_EPOCH>44046</REV_AT_EPOCH><BSTAR>.30943E-3</BSTAR><MEAN_MOTION_DOT>.936E-5</MEAN_MOTION_DOT><MEAN_MOTION_DDOT>0</MEAN_MOTION_DDOT></tleParameters></data></segment></body></omm>
<omm id="CCSDS_OMM_VERS" version="2.0">
<header><CREATION_DATE/><ORIGINATOR/></header><body><segment><metadata><OBJECT_NAME>IRIDIUM 22</OBJECT_NAME><OBJECT_ID>1997-043E</OBJECT_ID><CENTER_NAME>EARTH</CENTER_NAME><REF_FRAME>TEME</REF_FRAME><TIME_SYSTEM>UTC</TIME_SYSTEM><MEAN_ELEMENT_THEORY>SGP4</MEAN_ELEMENT_THEORY></metadata><data><meanElements><EPOCH>2025-02-23T19:19:48.133344</EPOCH><MEAN_MOTION>14.35821942</MEAN_MOTION><ECCENTRICITY>.0002085</ECCENTRICITY><INCLINATION>86.4031</INCLINATION><RA_OF_ASC_NODE>161.6627</RA_OF_ASC_NODE><ARG_OF_PERICENTER>94.6667</ARG_OF_PERICENTER><MEAN_ANOMALY>265.4768</MEAN_ANOMALY></meanElements><tleParameters><EPHEMERIS_TYPE>0</EPHEMERIS_TYPE><CLASSIFICATION_TYPE>U</CLASSIFICATION_TYPE><NORAD_CAT_ID>24907</NORAD_CAT_ID><ELEMENT_SET_NO>999</ELEMENT_SET_NO><REV_AT_EPOCH>44050</REV_AT_EPOCH><BSTAR>.29158E-3</BSTAR><MEAN_MOTION_DOT>.863E-5</MEAN_MOTION_DOT><MEAN_MOTION_DDOT>0</MEAN_MOTION_DDOT></tleParameters></data></segment></body></omm>
<omm id="CCSDS_OMM_VERS" version="2.0">
<header><CREATION_DATE/><ORIGINATOR/></header><body><segment><metadata><OBJECT_NAME>DUMMY MASS 1</OBJECT_NAME><OBJECT_ID>1997-048A</OBJECT_ID><CENTER_NAME>EARTH</CENTER_NAME><REF_FRAME>TEME</REF_FRAME><TIME_SYSTEM>UTC</TIME_SYSTEM><MEAN_ELEMENT_THEORY>SGP4</MEAN_ELEMENT_THEORY></metadata><data><meanElements><EPOCH>2025-02-24T02:06:43.097184</EPOCH><MEAN_MOTION>14.86814797</MEAN_MOTION><ECCENTRICITY>.0006774</ECCENTRICITY><INCLINATION>86.3401</INCLINATION><RA_OF_ASC_NODE>187.5711</RA_OF_ASC_NODE><ARG_OF_PERICENTER>167.9467</ARG_OF_PERICENTER><MEAN_ANOMALY>192.1921</MEAN_ANOMALY></meanElements><tleParameters><EPHEMERIS_TYPE>0</EPHEMERIS_TYPE><CLASSIFICATION_TYPE>U</CLASSIFICATION_TYPE><NORAD_CAT_ID>24925</NORAD_CAT_ID><ELEMENT_SET_NO>999</ELEMENT_SET_NO><REV_AT_EPOCH>48856</REV_AT_EPOCH><BSTAR>.12522E-3</BSTAR><MEAN_MOTION_DOT>.1144E-4</MEAN_MOTION_DOT><MEAN_MOTION_DDOT>0</MEAN_MOTION_DDOT></tleParameters></data></segment></body></omm>
<omm id="CCSDS_OMM_VERS" version="2.0">
<header><CREATION_DATE/><ORIGINATOR/></header><body><segment><metadata><OBJECT_NAME>DUMMY MASS 2</OBJECT_NAME><OBJECT_ID>1997-048B</OBJECT_ID><CENTER_NAME>EARTH</CENTER_NAME><REF_FRAME>TEME</REF_FRAME><TIME_SYSTEM>UTC</TIME_SYSTEM><MEAN_ELEMENT_THEORY>SGP4</MEAN_ELEMENT_THEORY></metadata><data><meanElements><EPOCH>2025-02-23T21:31:15.940128</EPOCH><MEAN_MOTION>14.86567350</MEAN_MOTION><ECCENTRICITY>.0007041</ECCENTRICITY><INCLINATION>86.3399</INCLINATION><RA_OF_ASC_NODE>189.2440</RA_OF_ASC_NODE><ARG_OF_PERICENTER>182.1299</ARG_OF_PERICENTER><MEAN_ANOMALY>177.9897</MEAN_ANOMALY></meanElements><tleParameters><EPHEMERIS_TYPE>0</EPHEMERIS_TYPE><CLASSIFICATION_TYPE>U</CLASSIFICATION_TYPE><NORAD_CAT_ID>24926</NORAD_CAT_ID><ELEMENT_SET_NO>999</ELEMENT_SET_NO><REV_AT_EPOCH>48807</REV_AT_EPOCH><BSTAR>.12558E-3</BSTAR><MEAN_MOTION_DOT>.114E-4</MEAN_MOTION_DOT><MEAN_MOTION_DDOT>0</MEAN_MOTION_DDOT></tleParameters></data></segment></body></omm>
<omm id="CCSDS_OMM_VERS" version="2.0">
<header><CREATION_DATE/><ORIGINATOR/></header><body><segment><metadata><OBJECT_NAME>IRIDIUM 29</OBJECT_NAME><OBJECT_ID>1997-051A</OBJECT_ID><CENTER_NAME>EARTH</CENTER_NAME><REF_FRAME>TEME</REF_FRAME><TIME_SYSTEM>UTC</TIME_SYSTEM><MEAN_ELEMENT_THEORY>SGP4</MEAN_ELEMENT_THEORY></metadata><data><meanElements><EPOCH>2025-02-23T20:49:28.008192</EPOCH><MEAN_MOTION>14.36299004</MEAN_MOTION><ECCENTRICITY>.0001825</ECCENTRICITY><INCLINATION>86.4012</INCLINATION><RA_OF_ASC_NODE>191.3726</RA_OF_ASC_NODE><ARG_OF_PERICENTER>92.7828</ARG_OF_PERICENTER><MEAN_ANOMALY>267.3578</MEAN_ANOMALY></meanElements><tleParameters><EPHEMERIS_TYPE>0</EPHEMERIS_TYPE><CLASSIFICATION_TYPE>U</CLASSIFICATION_TYPE><NORAD_CAT_ID>24944</NORAD_CAT_ID><ELEMENT_SET_NO>999</ELEMENT_SET_NO><REV_AT_EPOCH>43700</REV_AT_EPOCH><BSTAR>.36462E-3</BSTAR><MEAN_MOTION_DOT>.1084E-4</MEAN_MOTION_DOT><MEAN_MOTION_DDOT>0</MEAN_MOTION_DDOT></tleParameters></data></segment></body></omm>
<omm id="CCSDS_OMM_VERS" version="2.0">
<header><CREATION_DATE/><ORIGINATOR/></header><body><segment><metadata><OBJECT_NAME>IRIDIUM 33</OBJECT_NAME><OBJECT_ID>1997-051C</OBJECT_ID><CENTER_NAME>EARTH</CENTER_NAME><REF_FRAME>TEME</REF_FRAME><TIME_SYSTEM>UTC</TIME_SYSTEM><MEAN_ELEMENT_THEORY>SGP4</MEAN_ELEMENT_THEORY></metadata><data><meanElements><EPOCH>2025-02-23T20:47:28.617216</EPOCH><MEAN_MOTION>14.34776756</MEAN_MOTION><ECCENTRICITY>.0009875</ECCENTRICITY><INCLINATION>86.3928</INCLINATION><RA_OF_ASC_NODE>190.6251</RA_OF_ASC_NODE><ARG_OF_PERICENTER>89.5332</ARG_OF_PERICENTER><MEAN_ANOMALY>270.6995</MEAN_ANOMALY></meanElements><tleParameters><EPHEMERIS_TYPE>0</EPHEMERIS_TYPE><CLASSIFICATION_TYPE>U</CLASSIFICATION_TYPE><NORAD_CAT_ID>24946</NORAD_CAT_ID><ELEMENT_SET_NO>999</ELEMENT_SET_NO><REV_AT_EPOCH>43649</REV_AT_EPOCH><BSTAR>.26096E-3</BSTAR><MEAN_MOTION_DOT>.759E-5</MEAN_MOTION_DOT><MEAN_MOTION_DDOT>0</MEAN_MOTION_DDOT></tleParameters></data></segment></body></omm>
<omm id="CCSDS_OMM_VERS" version="2.0">
<header><CREATION_DATE/><ORIGINATOR/></header><body><segment><metadata><OBJECT_NAME>IRIDIUM 28</OBJECT_NAME><OBJECT_ID>1997-051E</OBJECT_ID><CENTER_NAME>EARTH</CENTER_NAME><REF_FRAME>TEME</REF_FRAME><TIME_SYSTEM>UTC</TIME_SYSTEM><MEAN_ELEMENT_THEORY>SGP4</MEAN_ELEMENT_THEORY></metadata><data><meanElements><EPOCH>2025-02-23T21:56:47.495904</EPOCH><MEAN_MOTION>14.37232765</MEAN_MOTION><ECCENTRICITY>.0002474</ECCENTRICITY><INCLINATION>86.4021</INCLINATION><RA_OF_ASC_NODE>188.9361</RA_OF_ASC_NODE><ARG_OF_PERICENTER>94.4698</ARG_OF_PERICENTER><MEAN_ANOMALY>265.6782</MEAN_ANOMALY></meanElements><tleParameters><EPHEMERIS_TYPE>0</EPHEMERIS_TYPE><CLASSIFICATION_TYPE>U</CLASSIFICATION_TYPE><NORAD_CAT_ID>24948</NORAD_CAT_ID><ELEMENT_SET_NO>999</ELEMENT_SET_NO><REV_AT_EPOCH>43757</REV_AT_EPOCH><BSTAR>.33102E-3</BSTAR><MEAN_MOTION_DOT>.1005E-4</MEAN_MOTION_DOT><MEAN_MOTION_DDOT>0</MEAN_MOTION_DDOT></tleParameters></data></segment></body></omm>
<omm id="CCSDS_OMM_VERS" version="2.0">
<header><CREATION_DATE/><ORIGINATOR/></header><body><segment><metadata><OBJECT_NAME>IRIDIUM 36</OBJECT_NAME><OBJECT_ID>1997-056C</OBJECT_ID><CENTER_NAME>EARTH</CENTER_NAME><REF_FRAME>TEME</REF_FRAME><TIME_SYSTEM>UTC</TIME_SYSTEM><MEAN_ELEMENT_THEORY>SGP4</MEAN_ELEMENT_THEORY></metadata><data><meanElements><EPOCH>2025-02-23T21:28:12.498240</EPOCH><MEAN_MOTION>14.37430781</MEAN_MOTION><ECCENTRICITY>.0002167</ECCENTRICITY><INCLINATION>86.3964</INCLINATION><RA_OF_ASC_NODE>220.5373</RA_OF_ASC_NODE><ARG_OF_PERICENTER>86.2001</ARG_OF_PERICENTER><MEAN_ANOMALY>273.9445</MEAN_ANOMALY></meanElements><tleParameters><EPHEMERIS_TYPE>0</EPHEMERIS_TYPE><CLASSIFICATION_TYPE>U</CLASSIFICATION_TYPE><NORAD_CAT_ID>24967</NORAD_CAT_ID><ELEMENT_SET_NO>999</ELEMENT_SET_NO><REV_AT_EPOCH>43594</REV_AT_EPOCH><BSTAR>.36376E-3</BSTAR><MEAN_MOTION_DOT>.1106E-4</MEAN_MOTION_DOT><MEAN_MOTION_DDOT>0</MEAN_MOTION_DDOT></tleParameters></data></segment></body></omm>

</ndm>
